[Satellite]
VERSION=1.1
NAME=SL-14 R/B
NICKNAME=SL-14 R/B
TLE1=1 20511U 90018B   15054.85360584  .00000583  00000-0  74448-4 0  9998
TLE2=2 20511  82.5246  20.2751 0017320   6.9155  52.9542 14.79663060347197
